*******************************************************************************
Ephemeris / WWW_USER Thu Dec  5 18:38:31 2024 Pasadena, USA      / Horizons    
*******************************************************************************
Target body name: 62412 (2000 SY178)              {source: JPL#44}
Center body name: Earth (399)                     {source: DE441}
Center-site name: Mauna Kea
*******************************************************************************
Start time      : A.D. 2019-Jan-19 04:15:00.0000 UT      
Stop  time      : A.D. 2019-Jan-19 16:49:00.0000 UT      
Step-size       : 1 minutes
*******************************************************************************
Target pole/equ : undefined
Target radii    : 5.187 km                                                     
Center geodetic : 204.5278, 19.8260847, 4.21024   {E-lon(deg),Lat(deg),Alt(km)}
Center cylindric: 204.5278, 6006.35451, 2151.0229 {E-lon(deg),Dxy(km),Dz(km)}
Center pole/equ : ITRF93                          {East-longitude positive}
Center radii    : 6378.137, 6378.137, 6356.752 km {Equator_a, b, pole_c}       
Target primary  : Sun
Vis. interferer : MOON (R_eq= 1737.400) km        {source: DE441}
Rel. light bend : Sun                             {source: DE441}
Rel. lght bnd GM: 1.3271E+11 km^3/s^2                                          
Small-body perts: Yes                             {source: SB441-N16}
Atmos refraction: NO (AIRLESS)
RA format       : HMS
Time format     : CAL 
Calendar mode   : Mixed Julian/Gregorian
RTS-only print  : NO       
EOP file        : eop.241205.p250303                                           
EOP coverage    : DATA-BASED 1962-JAN-20 TO 2024-DEC-05. PREDICTS-> 2025-MAR-02
Units conversion: 1 au= 149597870.700 km, c= 299792.458 km/s, 1 day= 86400.0 s 
Table cut-offs 1: Elevation (-90.0deg=NO ),Airmass (>38.000=NO), Daylight (YES)
Table cut-offs 2: Solar elongation (  0.0,180.0=NO ),Local Hour Angle( 0.0=NO )
Table cut-offs 3: RA/DEC angular rate (     0.0=NO )                           
*******************************************************************************
Initial IAU76/J2000 heliocentric ecliptic osculating elements (au, days, deg.):
  EPOCH=  2458127.5 ! 2018-Jan-09.00 (TDB)         Residual RMS= .2787         
   EC= .08141730682229319  QR= 2.89613208739257    TP= 2458420.6685284483      
   OM= 329.1525583823792   W=  163.0619562799197   IN= 4.73619265468861        
  Equivalent ICRF heliocentric cartesian coordinates (au, au/d):
   X= 8.831945932166756E-01  Y= 2.532168596675914E+00  Z= 1.360803999508301E+00
  VX=-9.867256226021401E-03 VY= 2.254941400948641E-03 VZ= 7.028227572403328E-04
Asteroid physical parameters (km, seconds, rotational period in hours):        
   GM= n.a.                RAD= 5.187              ROTPER= 3.33                
   H= 13.88                G= .150                 B-V= n.a.                   
                           ALBEDO= .065            STYP= n.a.                  
*******************************************************************************
 Date__(UT)__HR:MN     R.A._________(ICRF)_________DEC
******************************************************
$$SOE
 2019-Jan-19 16:33 N   10 56 53.703860 +06 42 01.51595
 2019-Jan-19 16:34 N   10 56 53.691262 +06 42 01.52379
 2019-Jan-19 16:35 N   10 56 53.678666 +06 42 01.53162
 2019-Jan-19 16:36 N   10 56 53.666074 +06 42 01.53946
 2019-Jan-19 16:37 C   10 56 53.653485 +06 42 01.54729
 2019-Jan-19 16:38 C   10 56 53.640899 +06 42 01.55512
 2019-Jan-19 16:39 C   10 56 53.628317 +06 42 01.56295
 2019-Jan-19 16:40 C   10 56 53.615737 +06 42 01.57077
 2019-Jan-19 16:41 C   10 56 53.603160 +06 42 01.57860
 2019-Jan-19 16:42 C   10 56 53.590587 +06 42 01.58642
 2019-Jan-19 16:43 C   10 56 53.578016 +06 42 01.59424
 2019-Jan-19 16:44 C   10 56 53.565449 +06 42 01.60206
 2019-Jan-19 16:45 C   10 56 53.552885 +06 42 01.60987
 2019-Jan-19 16:46 C   10 56 53.540324 +06 42 01.61769
 2019-Jan-19 16:47 C   10 56 53.527767 +06 42 01.62550
 2019-Jan-19 16:48 C   10 56 53.515213 +06 42 01.63331
 2019-Jan-19 16:49 C   10 56 53.502661 +06 42 01.64112
